[{"OBJECT_NAME":"ONEWEB-0331","OBJECT_ID":"2021-083N","EPOCH":"2025-11-14T04:32:26.647584","MEAN_MOTION":13.18688046,"ECCENTRICITY":0.00014645,"INCLINATION":87.9218,"RA_OF_ASC_NODE":18.149,"ARG_OF_PERICENTER":96.9541,"MEAN_ANOMALY":263.1758,"EPHEMERIS_TYPE":0,"CLASSIFICATION_TYPE":"U","NORAD_CAT_ID":49198,"ELEMENT_SET_NO":999,"REV_AT_EPOCH":20167,"BSTAR":0.00046691001,"MEAN_MOTION_DOT":1.97e-6,"MEAN_MOTION_DDOT":0},{"OBJECT_NAME":"ONEWEB-0333","OBJECT_ID":"2021-083P","EPOCH":"2025-11-14T04:00:28.044864","MEAN_MOTION":13.13469533,"ECCENTRICITY":0.00018059,"INCLINATION":87.9,"RA_OF_ASC_NODE":2.9961,"ARG_OF_PERICENTER":100.4307,"MEAN_ANOMALY":259.7026,"EPHEMERIS_TYPE":0,"CLASSIFICATION_TYPE":"U","NORAD_CAT_ID":49199,"ELEMENT_SET_NO":999,"REV_AT_EPOCH":20268,"BSTAR":-0.00038467434,"MEAN_MOTION_DOT":-1.28e-6,"MEAN_MOTION_DDOT":0},{"OBJECT_NAME":"ONEWEB-0334","OBJECT_ID":"2021-083Q","EPOCH":"2025-11-13T11:06:40.590720","MEAN_MOTION":13.20772313,"ECCENTRICITY":0.0002748,"INCLINATION":87.9175,"RA_OF_ASC_NODE":317.4859,"ARG_OF_PERICENTER":100.6952,"MEAN_ANOMALY":259.4491,"EPHEMERIS_TYPE":0,"CLASSIFICATION_TYPE":"U","NORAD_CAT_ID":49200,"ELEMENT_SET_NO":999,"REV_AT_EPOCH":20831,"BSTAR":-3.0393e-6,"MEAN_MOTION_DOT":1.2e-7,"MEAN_MOTION_DDOT":0},{"OBJECT_NAME":"ONEWEB-0335","OBJECT_ID":"2021-083R","EPOCH":"2025-11-14T03:53:09.191616","MEAN_MOTION":13.13469523,"ECCENTRICITY":0.0001612,"INCLINATION":87.9,"RA_OF_ASC_NODE":2.9851,"ARG_OF_PERICENTER":97.6878,"MEAN_ANOMALY":262.4434,"EPHEMERIS_TYPE":0,"CLASSIFICATION_TYPE":"U","NORAD_CAT_ID":49201,"ELEMENT_SET_NO":999,"REV_AT_EPOCH":20269,"BSTAR":-0.0007050126,"MEAN_MOTION_DOT":-2.45e-6,"MEAN_MOTION_DDOT":0},{"OBJECT_NAME":"ONEWEB-0336","OBJECT_ID":"2021-083S","EPOCH":"2025-11-14T05:01:24.317472","MEAN_MOTION":13.13467811,"ECCENTRICITY":0.00014159,"INCLINATION":87.9007,"RA_OF_ASC_NODE":2.9706,"ARG_OF_PERICENTER":94.1975,"MEAN_ANOMALY":265.9316,"EPHEMERIS_TYPE":0,"CLASSIFICATION_TYPE":"U","NORAD_CAT_ID":49202,"ELEMENT_SET_NO":999,"REV_AT_EPOCH":20269,"BSTAR":0.00033158573,"MEAN_MOTION_DOT":1.34e-6,"MEAN_MOTION_DDOT":0},{"OBJECT_NAME":"ONEWEB-0337","OBJECT_ID":"2021-083T","EPOCH":"2025-11-14T05:15:49.492512","MEAN_MOTION":13.13467386,"ECCENTRICITY":0.00017403,"INCLINATION":87.9014,"RA_OF_ASC_NODE":2.9791,"ARG_OF_PERICENTER":91.2626,"MEAN_ANOMALY":268.8702,"EPHEMERIS_TYPE":0,"CLASSIFICATION_TYPE":"U","NORAD_CAT_ID":49203,"ELEMENT_SET_NO":999,"REV_AT_EPOCH":20269,"BSTAR":3.314312e-6,"MEAN_MOTION_DOT":1.4e-7,"MEAN_MOTION_DDOT":0},{"OBJECT_NAME":"ONEWEB-0338","OBJECT_ID":"2021-083U","EPOCH":"2025-11-14T01:03:01.035936","MEAN_MOTION":13.20770016,"ECCENTRICITY":0.00021142,"INCLINATION":87.9181,"RA_OF_ASC_NODE":317.3719,"ARG_OF_PERICENTER":93.1392,"MEAN_ANOMALY":266.9983,"EPHEMERIS_TYPE":0,"CLASSIFICATION_TYPE":"U","NORAD_CAT_ID":49204,"ELEMENT_SET_NO":999,"REV_AT_EPOCH":20841,"BSTAR":-0.00010861664,"MEAN_MOTION_DOT":-3.1e-7,"MEAN_MOTION_DDOT":0},{"OBJECT_NAME":"ONEWEB-0339","OBJECT_ID":"2021-083V","EPOCH":"2025-11-14T03:38:31.363296","MEAN_MOTION":13.134719,"ECCENTRICITY":0.0002605,"INCLINATION":87.9011,"RA_OF_ASC_NODE":2.9746,"ARG_OF_PERICENTER":106.5406,"MEAN_ANOMALY":253.6009,"EPHEMERIS_TYPE":0,"CLASSIFICATION_TYPE":"U","NORAD_CAT_ID":49205,"ELEMENT_SET_NO":999,"REV_AT_EPOCH":20266,"BSTAR":-0.00033760092,"MEAN_MOTION_DOT":-1.11e-6,"MEAN_MOTION_DDOT":0},{"OBJECT_NAME":"ONEWEB-0340","OBJECT_ID":"2021-083W","EPOCH":"2025-11-14T04:13:25.486752","MEAN_MOTION":13.1868958,"ECCENTRICITY":0.00017007,"INCLINATION":87.9211,"RA_OF_ASC_NODE":18.1556,"ARG_OF_PERICENTER":99.8024,"MEAN_ANOMALY":260.3301,"EPHEMERIS_TYPE":0,"CLASSIFICATION_TYPE":"U","NORAD_CAT_ID":49206,"ELEMENT_SET_NO":999,"REV_AT_EPOCH":20163,"BSTAR":0.00011599705,"MEAN_MOTION_DOT":5.9e-7,"MEAN_MOTION_DDOT":0},{"OBJECT_NAME":"ONEWEB-0341","OBJECT_ID":"2021-083X","EPOCH":"2025-11-14T04:22:55.560864","MEAN_MOTION":13.18689082,"ECCENTRICITY":0.00018026,"INCLINATION":87.9217,"RA_OF_ASC_NODE":18.1668,"ARG_OF_PERICENTER":82.2403,"MEAN_ANOMALY":277.8934,"EPHEMERIS_TYPE":0,"CLASSIFICATION_TYPE":"U","NORAD_CAT_ID":49207,"ELEMENT_SET_NO":999,"REV_AT_EPOCH":20165,"BSTAR":9.79843e-5,"MEAN_MOTION_DOT":5.2e-7,"MEAN_MOTION_DDOT":0},{"OBJECT_NAME":"ONEWEB-0342","OBJECT_ID":"2021-083Y","EPOCH":"2025-11-14T01:12:05.911488","MEAN_MOTION":13.20772392,"ECCENTRICITY":0.00019501,"INCLINATION":87.9188,"RA_OF_ASC_NODE":317.34,"ARG_OF_PERICENTER":90.9648,"MEAN_ANOMALY":269.1709,"EPHEMERIS_TYPE":0,"CLASSIFICATION_TYPE":"U","NORAD_CAT_ID":49208,"ELEMENT_SET_NO":999,"REV_AT_EPOCH":20838,"BSTAR":-5.6858579e-5,"MEAN_MOTION_DOT":-1.0e-7,"MEAN_MOTION_DDOT":0},{"OBJECT_NAME":"ONEWEB-0343","OBJECT_ID":"2021-083Z","EPOCH":"2025-11-14T04:34:49.871136","MEAN_MOTION":13.18686804,"ECCENTRICITY":0.00021376,"INCLINATION":87.9221,"RA_OF_ASC_NODE":18.157,"ARG_OF_PERICENTER":87.0754,"MEAN_ANOMALY":273.0622,"EPHEMERIS_TYPE":0,"CLASSIFICATION_TYPE":"U","NORAD_CAT_ID":49209,"ELEMENT_SET_NO":999,"REV_AT_EPOCH":20170,"BSTAR":0.00038350771,"MEAN_MOTION_DOT":1.64e-6,"MEAN_MOTION_DDOT":0},{"OBJECT_NAME":"ONEWEB-0344","OBJECT_ID":"2021-083AA","EPOCH":"2025-11-14T03:31:12.431424","MEAN_MOTION":13.13470935,"ECCENTRICITY":0.00017583,"INCLINATION":87.9001,"RA_OF_ASC_NODE":3.0099,"ARG_OF_PERICENTER":84.2392,"MEAN_ANOMALY":275.8938,"EPHEMERIS_TYPE":0,"CLASSIFICATION_TYPE":"U","NORAD_CAT_ID":49210,"ELEMENT_SET_NO":999,"REV_AT_EPOCH":20266,"BSTAR":-0.00045186342,"MEAN_MOTION_DOT":-1.52e-6,"MEAN_MOTION_DDOT":0},{"OBJECT_NAME":"ONEWEB-0345","OBJECT_ID":"2021-083AB","EPOCH":"2025-11-14T03:19:02.154432","MEAN_MOTION":13.13468958,"ECCENTRICITY":0.00018174,"INCLINATION":87.901,"RA_OF_ASC_NODE":2.9691,"ARG_OF_PERICENTER":85.2032,"MEAN_ANOMALY":274.9305,"EPHEMERIS_TYPE":0,"CLASSIFICATION_TYPE":"U","NORAD_CAT_ID":49211,"ELEMENT_SET_NO":999,"REV_AT_EPOCH":20267,"BSTAR":2.9553568e-5,"MEAN_MOTION_DOT":2.4e-7,"MEAN_MOTION_DDOT":0},{"OBJECT_NAME":"ONEWEB-0346","OBJECT_ID":"2021-083AC","EPOCH":"2025-11-14T04:30:03.197664","MEAN_MOTION":13.18684737,"ECCENTRICITY":0.00012369,"INCLINATION":87.9221,"RA_OF_ASC_NODE":18.1746,"ARG_OF_PERICENTER":111.102,"MEAN_ANOMALY":249.0245,"EPHEMERIS_TYPE":0,"CLASSIFICATION_TYPE":"U","NORAD_CAT_ID":49212,"ELEMENT_SET_NO":999,"REV_AT_EPOCH":20164,"BSTAR":8.602619e-5,"MEAN_MOTION_DOT":4.7e-7,"MEAN_MOTION_DDOT":0},{"OBJECT_NAME":"ONEWEB-0348","OBJECT_ID":"2021-083AD","EPOCH":"2025-11-14T00:58:29.120448","MEAN_MOTION":13.20758298,"ECCENTRICITY":0.00014648,"INCLINATION":87.9166,"RA_OF_ASC_NODE":317.351,"ARG_OF_PERICENTER":81.0292,"MEAN_ANOMALY":279.1007,"EPHEMERIS_TYPE":0,"CLASSIFICATION_TYPE":"U","NORAD_CAT_ID":49213,"ELEMENT_SET_NO":999,"REV_AT_EPOCH":20841,"BSTAR":-0.0066899929,"MEAN_MOTION_DOT":-2.706e-5,"MEAN_MOTION_DDOT":0},{"OBJECT_NAME":"ONEWEB-0350","OBJECT_ID":"2021-083AE","EPOCH":"2025-11-14T03:32:25.385856","MEAN_MOTION":13.13468122,"ECCENTRICITY":0.00017036,"INCLINATION":87.9011,"RA_OF_ASC_NODE":2.9641,"ARG_OF_PERICENTER":87.1873,"MEAN_ANOMALY":272.9452,"EPHEMERIS_TYPE":0,"CLASSIFICATION_TYPE":"U","NORAD_CAT_ID":49214,"ELEMENT_SET_NO":999,"REV_AT_EPOCH":20270,"BSTAR":-0.00074698117,"MEAN_MOTION_DOT":-2.6e-6,"MEAN_MOTION_DDOT":0}]
