ONEWEB-0331             
1 49198U 21083N   25318.18919731  .00000197  00000+0  46691-3 0  9998
2 49198  87.9218  18.1490 0001464  96.9541 263.1758 13.18688046201673
ONEWEB-0333             
1 49199U 21083P   25318.16699126 -.00000128  00000+0 -38467-3 0  9998
2 49199  87.9000   2.9961 0001805 100.4307 259.7026 13.13469533202681
ONEWEB-0334             
1 49200U 21083Q   25317.46296980  .00000012  00000+0 -30393-5 0  9997
2 49200  87.9175 317.4859 0002748 100.6952 259.4491 13.20772313208312
ONEWEB-0335             
1 49201U 21083R   25318.16191194 -.00000245  00000+0 -70501-3 0  9999
2 49201  87.9000   2.9851 0001612  97.6878 262.4434 13.13469523202693
ONEWEB-0336             
1 49202U 21083S   25318.20930923  .00000134  00000+0  33159-3 0  9999
2 49202  87.9007   2.9706 0001415  94.1975 265.9316 13.13467811202696
ONEWEB-0337             
1 49203U 21083T   25318.21932283  .00000014  00000+0  33143-5 0  9994
2 49203  87.9014   2.9791 0001740  91.2626 268.8702 13.13467386202699
ONEWEB-0338             
1 49204U 21083U   25318.04376199 -.00000031  00000+0 -10862-3 0  9996
2 49204  87.9181 317.3719 0002114  93.1392 266.9983 13.20770016208416
ONEWEB-0339             
1 49205U 21083V   25318.15175189 -.00000111  00000+0 -33760-3 0  9996
2 49205  87.9011   2.9746 0002605 106.5406 253.6009 13.13471900202661
ONEWEB-0340             
1 49206U 21083W   25318.17598943  .00000059  00000+0  11600-3 0  9994
2 49206  87.9211  18.1556 0001700  99.8024 260.3301 13.18689580201633
ONEWEB-0341             
1 49207U 21083X   25318.18258751  .00000052  00000+0  97984-4 0  9999
2 49207  87.9217  18.1668 0001802  82.2403 277.8934 13.18689082201658
ONEWEB-0342             
1 49208U 21083Y   25318.05006842 -.00000010  00000+0 -56859-4 0  9990
2 49208  87.9188 317.3400 0001950  90.9648 269.1709 13.20772392208386
ONEWEB-0343             
1 49209U 21083Z   25318.19085499  .00000164  00000+0  38351-3 0  9995
2 49209  87.9221  18.1570 0002137  87.0754 273.0622 13.18686804201708
ONEWEB-0344             
1 49210U 21083AA  25318.14667166 -.00000152  00000+0 -45186-3 0  9992
2 49210  87.9001   3.0099 0001758  84.2392 275.8938 13.13470935202667
ONEWEB-0345             
1 49211U 21083AB  25318.13821938  .00000024  00000+0  29554-4 0  9999
2 49211  87.9010   2.9691 0001817  85.2032 274.9305 13.13468958202673
ONEWEB-0346             
1 49212U 21083AC  25318.18753701  .00000047  00000+0  86026-4 0  9999
2 49212  87.9221  18.1746 0001236 111.1020 249.0245 13.18684737201641
ONEWEB-0348             
1 49213U 21083AD  25318.04061482 -.00002706  00000+0 -66900-2 0  9996
2 49213  87.9166 317.3510 0001464  81.0292 279.1007 13.20758298208411
ONEWEB-0350             
1 49214U 21083AE  25318.14751604 -.00000260  00000+0 -74698-3 0  9997
2 49214  87.9011   2.9641 0001703  87.1873 272.9452 13.13468122202708
